{"type": "FeatureCollection", "features": [ {"type": "Feature", "properties": {"norad_id": 38953, "name": "BEIDOU-2 G6 (C02)", "group": "beidou", "lat": 3.944124783795612, "lon": 156.77755340279825, "alt_km": 35816.37504239371, "timestamp": "2025-12-22T22:44:21.240585+00:00", "meta": {"OBJECT_NAME": "BEIDOU-2 G6 (C02)", "OBJECT_ID": "2012-059A", "EPOCH": "2025-12-22T13:33:52.129152", "MEAN_MOTION": 1.00268516, "ECCENTRICITY": 0.00083054, "INCLINATION": 3.9727, "RA_OF_ASC_NODE": 75.4106, "ARG_OF_PERICENTER": 292.315, "MEAN_ANOMALY": 11.0325, "EPHEMERIS_TYPE": 0, "CLASSIFICATION_TYPE": "U", "NORAD_CAT_ID": 38953, "ELEMENT_SET_NO": 999, "REV_AT_EPOCH": 4813, "BSTAR": 0, "MEAN_MOTION_DOT": -1.55e-06, "MEAN_MOTION_DDOT": 0}, "tle": {"line1": "1 38953U 12059A   25356.56518668 -.00000155  00000+0  00000+0 0  9991", "line2": "2 38953   3.9727  75.4106 0008305 292.3150  11.0325  1.00268516 48136"}}, "geometry": {"type": "Point", "coordinates": [156.77755340279825, 3.944124783795612]}}, {"type": "Feature", "properties": {"norad_id": 40549, "name": "BEIDOU-3S IGSO-1S (C31)", "group": "beidou", "lat": -35.76496760693366, "lon": 155.41888227860358, "alt_km": 35661.82964198455, "timestamp": "2025-12-22T22:44:21.240613+00:00", "meta": {"OBJECT_NAME": "BEIDOU-3S IGSO-1S (C31)", "OBJECT_ID": "2015-019A", "EPOCH": "2025-12-18T19:55:38.829792", "MEAN_MOTION": 1.00292047, "ECCENTRICITY": 0.0036331, "INCLINATION": 49.5404, "RA_OF_ASC_NODE": 297.6395, "ARG_OF_PERICENTER": 194.0028, "MEAN_ANOMALY": 349.3621, "EPHEMERIS_TYPE": 0, "CLASSIFICATION_TYPE": "U", "NORAD_CAT_ID": 40549, "ELEMENT_SET_NO": 999, "REV_AT_EPOCH": 3926, "BSTAR": 0, "MEAN_MOTION_DOT": -1.83e-06, "MEAN_MOTION_DDOT": 0}, "tle": {"line1": "1 40549U 15019A   25352.83031053 -.00000183  00000+0  00000+0 0  9999", "line2": "2 40549  49.5404 297.6395 0036331 194.0028 349.3621  1.00292047 39264"}}, "geometry": {"type": "Point", "coordinates": [155.41888227860358, -35.76496760693366]}}, {"type": "Feature", "properties": {"norad_id": 40748, "name": "BEIDOU-3S M2S (C58)", "group": "beidou", "lat": -6.636901233931959, "lon": 132.75904049197823, "alt_km": 21525.194720868163, "timestamp": "2025-12-22T22:44:21.240627+00:00", "meta": {"OBJECT_NAME": "BEIDOU-3S M2S (C58)", "OBJECT_ID": "2015-037A", "EPOCH": "2025-12-22T03:06:37.980000", "MEAN_MOTION": 1.86229546, "ECCENTRICITY": 0.00118585, "INCLINATION": 55.0305, "RA_OF_ASC_NODE": 308.1418, "ARG_OF_PERICENTER": 270.827, "MEAN_ANOMALY": 89.0356, "EPHEMERIS_TYPE": 0, "CLASSIFICATION_TYPE": "U", "NORAD_CAT_ID": 40748, "ELEMENT_SET_NO": 999, "REV_AT_EPOCH": 7082, "BSTAR": 0, "MEAN_MOTION_DOT": -5.8e-07, "MEAN_MOTION_DDOT": 0}, "tle": {"line1": "1 40748U 15037A   25356.12960625 -.00000058  00000+0  00000+0 0  9993", "line2": "2 40748  55.0305 308.1418 0011858 270.8270  89.0356  1.86229546 70828"}}, "geometry": {"type": "Point", "coordinates": [132.75904049197823, -6.636901233931959]}}, {"type": "Feature", "properties": {"norad_id": 40749, "name": "BEIDOU-3S M1S (C57)", "group": "beidou", "lat": 27.986335207174015, "lon": -30.105248965698756, "alt_km": 21513.86553485008, "timestamp": "2025-12-22T22:44:21.240639+00:00", "meta": {"OBJECT_NAME": "BEIDOU-3S M1S (C57)", "OBJECT_ID": "2015-037B", "EPOCH": "2025-12-21T06:50:01.998240", "MEAN_MOTION": 1.86253999, "ECCENTRICITY": 0.00036481, "INCLINATION": 55.0276, "RA_OF_ASC_NODE": 308.16, "ARG_OF_PERICENTER": 1.485, "MEAN_ANOMALY": 358.5113, "EPHEMERIS_TYPE": 0, "CLASSIFICATION_TYPE": "U", "NORAD_CAT_ID": 40749, "ELEMENT_SET_NO": 999, "REV_AT_EPOCH": 7081, "BSTAR": 0, "MEAN_MOTION_DOT": -6.3e-07, "MEAN_MOTION_DDOT": 0}, "tle": {"line1": "1 40749U 15037B   25355.28474535 -.00000063  00000+0  00000+0 0  9996", "line2": "2 40749  55.0276 308.1600 0003648   1.4850 358.5113  1.86253999 70812"}}, "geometry": {"type": "Point", "coordinates": [-30.105248965698756, 27.986335207174015]}}, {"type": "Feature", "properties": {"norad_id": 40938, "name": "BEIDOU-3S IGSO-2S (C56)", "group": "beidou", "lat": -49.50223007991635, "lon": 168.37064544244467, "alt_km": 35745.516297434464, "timestamp": "2025-12-22T22:44:21.240651+00:00", "meta": {"OBJECT_NAME": "BEIDOU-3S IGSO-2S (C56)", "OBJECT_ID": "2015-053A", "EPOCH": "2025-12-21T17:04:25.482720", "MEAN_MOTION": 1.00268185, "ECCENTRICITY": 0.00606025, "INCLINATION": 49.4967, "RA_OF_ASC_NODE": 260.9003, "ARG_OF_PERICENTER": 188.6932, "MEAN_ANOMALY": 352.8862, "EPHEMERIS_TYPE": 0, "CLASSIFICATION_TYPE": "U", "NORAD_CAT_ID": 40938, "ELEMENT_SET_NO": 999, "REV_AT_EPOCH": 3757, "BSTAR": 0, "MEAN_MOTION_DOT": -1.05e-06, "MEAN_MOTION_DDOT": 0}, "tle": {"line1": "1 40938U 15053A   25355.71140605 -.00000105  00000+0  00000+0 0  9997", "line2": "2 40938  49.4967 260.9003 0060602 188.6932 352.8862  1.00268185 37573"}}, "geometry": {"type": "Point", "coordinates": [168.37064544244467, -49.50223007991635]}}, {"type": "Feature", "properties": {"norad_id": 41434, "name": "BEIDOU-2 IGSO-6 (C13)", "group": "beidou", "lat": 44.58765192473062, "lon": -174.89387486093827, "alt_km": 35839.253719334825, "timestamp": "2025-12-22T22:44:21.240663+00:00", "meta": {"OBJECT_NAME": "BEIDOU-2 IGSO-6 (C13)", "OBJECT_ID": "2016-021A", "EPOCH": "2025-12-18T14:33:38.837664", "MEAN_MOTION": 1.00292299, "ECCENTRICITY": 0.00610054, "INCLINATION": 59.9732, "RA_OF_ASC_NODE": 39.8392, "ARG_OF_PERICENTER": 230.2031, "MEAN_ANOMALY": 129.1398, "EPHEMERIS_TYPE": 0, "CLASSIFICATION_TYPE": "U", "NORAD_CAT_ID": 41434, "ELEMENT_SET_NO": 999, "REV_AT_EPOCH": 3566, "BSTAR": 0, "MEAN_MOTION_DOT": -1.41e-06, "MEAN_MOTION_DDOT": 0}, "tle": {"line1": "1 41434U 16021A   25352.60669951 -.00000141  00000+0  00000+0 0  9990", "line2": "2 41434  59.9732  39.8392 0061005 230.2031 129.1398  1.00292299 35667"}}, "geometry": {"type": "Point", "coordinates": [-174.89387486093827, 44.58765192473062]}}, {"type": "Feature", "properties": {"norad_id": 41586, "name": "BEIDOU-2 G7 (C03)", "group": "beidou", "lat": 1.6103768998843506, "lon": -176.65739570618922, "alt_km": 35794.54726879808, "timestamp": "2025-12-22T22:44:21.240675+00:00", "meta": {"OBJECT_NAME": "BEIDOU-2 G7 (C03)", "OBJECT_ID": "2016-037A", "EPOCH": "2025-12-19T15:57:04.317984", "MEAN_MOTION": 1.00271972, "ECCENTRICITY": 0.0005143, "INCLINATION": 1.7733, "RA_OF_ASC_NODE": 67.8469, "ARG_OF_PERICENTER": 2.9481, "MEAN_ANOMALY": 7.4377, "EPHEMERIS_TYPE": 0, "CLASSIFICATION_TYPE": "U", "NORAD_CAT_ID": 41586, "ELEMENT_SET_NO": 999, "REV_AT_EPOCH": 509, "BSTAR": 0, "MEAN_MOTION_DOT": -3.3e-06, "MEAN_MOTION_DDOT": 0}, "tle": {"line1": "1 41586U 16037A   25353.66463331 -.00000330  00000+0  00000+0 0  9996", "line2": "2 41586   1.7733  67.8469 0005143   2.9481   7.4377  1.00271972  5095"}}, "geometry": {"type": "Point", "coordinates": [-176.65739570618922, 1.6103768998843506]}}, {"type": "Feature", "properties": {"norad_id": 43001, "name": "BEIDOU-3 M1 (C19)", "group": "beidou", "lat": -34.80705215282765, "lon": 41.58134071113059, "alt_km": 21506.38915189409, "timestamp": "2025-12-22T22:44:21.240688+00:00", "meta": {"OBJECT_NAME": "BEIDOU-3 M1 (C19)", "OBJECT_ID": "2017-069A", "EPOCH": "2025-12-21T09:37:16.890816", "MEAN_MOTION": 1.86231333, "ECCENTRICITY": 0.00096297, "INCLINATION": 56.5338, "RA_OF_ASC_NODE": 68.9479, "ARG_OF_PERICENTER": 302.2645, "MEAN_ANOMALY": 57.6886, "EPHEMERIS_TYPE": 0, "CLASSIFICATION_TYPE": "U", "NORAD_CAT_ID": 43001, "ELEMENT_SET_NO": 999, "REV_AT_EPOCH": 5529, "BSTAR": 0, "MEAN_MOTION_DOT": -3.5e-07, "MEAN_MOTION_DDOT": 0}, "tle": {"line1": "1 43001U 17069A   25355.40088994 -.00000035  00000+0  00000+0 0  9990", "line2": "2 43001  56.5338  68.9479 0009629 302.2645  57.6886  1.86231333 55292"}}, "geometry": {"type": "Point", "coordinates": [41.58134071113059, -34.80705215282765]}}, {"type": "Feature", "properties": {"norad_id": 43002, "name": "BEIDOU-3 M2 (C20)", "group": "beidou", "lat": -1.4962875282115418, "lon": 67.96318757844634, "alt_km": 21512.38029898818, "timestamp": "2025-12-22T22:44:21.240699+00:00", "meta": {"OBJECT_NAME": "BEIDOU-3 M2 (C20)", "OBJECT_ID": "2017-069B", "EPOCH": "2025-12-22T09:54:58.962816", "MEAN_MOTION": 1.86231087, "ECCENTRICITY": 0.00067293, "INCLINATION": 56.5339, "RA_OF_ASC_NODE": 68.9503, "ARG_OF_PERICENTER": 327.7398, "MEAN_ANOMALY": 32.2697, "EPHEMERIS_TYPE": 0, "CLASSIFICATION_TYPE": "U", "NORAD_CAT_ID": 43002, "ELEMENT_SET_NO": 999, "REV_AT_EPOCH": 5530, "BSTAR": 0, "MEAN_MOTION_DOT": -2.8e-07, "MEAN_MOTION_DDOT": 0}, "tle": {"line1": "1 43002U 17069B   25356.41318244 -.00000028  00000+0  00000+0 0  9999", "line2": "2 43002  56.5339  68.9503 0006729 327.7398  32.2697  1.86231087 55304"}}, "geometry": {"type": "Point", "coordinates": [67.96318757844634, -1.4962875282115418]}}, {"type": "Feature", "properties": {"norad_id": 43107, "name": "BEIDOU-3 M7 (C27)", "group": "beidou", "lat": 7.54670980348234, "lon": 123.01675098845493, "alt_km": 21529.13624986869, "timestamp": "2025-12-22T22:44:21.240710+00:00", "meta": {"OBJECT_NAME": "BEIDOU-3 M7 (C27)", "OBJECT_ID": "2018-003A", "EPOCH": "2025-12-22T03:44:43.463904", "MEAN_MOTION": 1.86232634, "ECCENTRICITY": 0.00029638, "INCLINATION": 54.4883, "RA_OF_ASC_NODE": 308.4878, "ARG_OF_PERICENTER": 66.6968, "MEAN_ANOMALY": 293.333, "EPHEMERIS_TYPE": 0, "CLASSIFICATION_TYPE": "U", "NORAD_CAT_ID": 43107, "ELEMENT_SET_NO": 999, "REV_AT_EPOCH": 5405, "BSTAR": 0, "MEAN_MOTION_DOT": -5.9e-07, "MEAN_MOTION_DDOT": 0}, "tle": {"line1": "1 43107U 18003A   25356.15605861 -.00000059  00000+0  00000+0 0  9993", "line2": "2 43107  54.4883 308.4878 0002963  66.6968 293.3330  1.86232634 54050"}}, "geometry": {"type": "Point", "coordinates": [123.01675098845493, 7.54670980348234]}}]}